{
  "type": "FeatureCollection",
  "features": [
    {
      "type": "Feature",
      "properties": {
        "norad_id": 41877,
        "name": "RESOURCESAT-2A",
        "group": "resource",
        "lat": 59.05449767980148,
        "lon": -118.77730445013329,
        "alt_km": 815.0720485668235,
        "timestamp": "2025-12-02T08:59:32.377080+00:00",
        "meta_object_name": "RESOURCESAT-2A",
        "meta_object_id": "2016-074A",
        "meta_epoch": "2025-12-02T05:03:09.348768",
        "meta_mean_motion": 14.21592055,
        "meta_eccentricity": 0.0001187,
        "meta_inclination": 98.7769,
        "meta_ra_of_asc_node": 46.1273,
        "meta_arg_of_pericenter": 307.7726,
        "meta_mean_anomaly": 52.3344,
        "meta_ephemeris_type": 0,
        "meta_classification_type": "U",
        "meta_norad_cat_id": 41877,
        "meta_element_set_no": 999,
        "meta_rev_at_epoch": 46631,
        "meta_bstar": 0.00011253,
        "meta_mean_motion_dot": 2.02e-06,
        "meta_mean_motion_ddot": 0,
        "tle_line1": "1 41877U 16074A   25336.21052487  .00000202  00000+0  11253-3 0  9991",
        "tle_line2": "2 41877  98.7769  46.1273 0001187 307.7726  52.3344 14.21592055466312"
      },
      "geometry": {
        "type": "Point",
        "coordinates": [
          -118.77730445013329,
          59.05449767980148
        ]
      }
    },
    {
      "type": "Feature",
      "properties": {
        "norad_id": 41948,
        "name": "CARTOSAT-2D",
        "group": "resource",
        "lat": 82.53049074437074,
        "lon": -51.371829953844035,
        "alt_km": 501.719567935892,
        "timestamp": "2025-12-02T08:59:32.377091+00:00",
        "meta_object_name": "CARTOSAT-2D",
        "meta_object_id": "2017-008A",
        "meta_epoch": "2025-12-02T03:51:28.870848",
        "meta_mean_motion": 15.19322257,
        "meta_eccentricity": 0.0004866,
        "meta_inclination": 97.4406,
        "meta_ra_of_asc_node": 33.8184,
        "meta_arg_of_pericenter": 203.0166,
        "meta_mean_anomaly": 157.0851,
        "meta_ephemeris_type": 0,
        "meta_classification_type": "U",
        "meta_norad_cat_id": 41948,
        "meta_element_set_no": 999,
        "meta_rev_at_epoch": 48766,
        "meta_bstar": 1.7816e-06,
        "meta_mean_motion_dot": -3e-07,
        "meta_mean_motion_ddot": 0,
        "tle_line1": "1 41948U 17008A   25336.16075082 -.00000030  00000+0  17816-5 0  9991",
        "tle_line2": "2 41948  97.4406  33.8184 0004866 203.0166 157.0851 15.19322257487662"
      },
      "geometry": {
        "type": "Point",
        "coordinates": [
          -51.371829953844035,
          82.53049074437074
        ]
      }
    },
    {
      "type": "Feature",
      "properties": {
        "norad_id": 42063,
        "name": "SENTINEL-2B",
        "group": "resource",
        "lat": 72.71696049360742,
        "lon": -102.03372203313494,
        "alt_km": 781.2272782848695,
        "timestamp": "2025-12-02T08:59:32.377102+00:00",
        "meta_object_name": "SENTINEL-2B",
        "meta_object_id": "2017-013A",
        "meta_epoch": "2025-12-02T05:08:47.810400",
        "meta_mean_motion": 14.30809036,
        "meta_eccentricity": 0.0001115,
        "meta_inclination": 98.5728,
        "meta_ra_of_asc_node": 48.8076,
        "meta_arg_of_pericenter": 98.5589,
        "meta_mean_anomaly": 261.572,
        "meta_ephemeris_type": 0,
        "meta_classification_type": "U",
        "meta_norad_cat_id": 42063,
        "meta_element_set_no": 999,
        "meta_rev_at_epoch": 45647,
        "meta_bstar": 8.8983e-05,
        "meta_mean_motion_dot": 1.9e-06,
        "meta_mean_motion_ddot": 0,
        "tle_line1": "1 42063U 17013A   25336.21444225  .00000190  00000+0  88983-4 0  9999",
        "tle_line2": "2 42063  98.5728  48.8076 0001115  98.5589 261.5720 14.30809036456474"
      },
      "geometry": {
        "type": "Point",
        "coordinates": [
          -102.03372203313494,
          72.71696049360742
        ]
      }
    },
    {
      "type": "Feature",
      "properties": {
        "norad_id": 42767,
        "name": "CARTOSAT-2E",
        "group": "resource",
        "lat": 0.15511795753160995,
        "lon": 34.07600764466151,
        "alt_km": 510.7282310566234,
        "timestamp": "2025-12-02T08:59:32.377112+00:00",
        "meta_object_name": "CARTOSAT-2E",
        "meta_object_id": "2017-036C",
        "meta_epoch": "2025-12-02T04:14:58.879968",
        "meta_mean_motion": 15.19329699,
        "meta_eccentricity": 0.0002722,
        "meta_inclination": 97.4579,
        "meta_ra_of_asc_node": 33.9012,
        "meta_arg_of_pericenter": 276.9631,
        "meta_mean_anomaly": 83.1294,
        "meta_ephemeris_type": 0,
        "meta_classification_type": "U",
        "meta_norad_cat_id": 42767,
        "meta_element_set_no": 999,
        "meta_rev_at_epoch": 46823,
        "meta_bstar": 0.00033084,
        "meta_mean_motion_dot": 6.923e-05,
        "meta_mean_motion_ddot": 0,
        "tle_line1": "1 42767U 17036C   25336.17707037  .00006923  00000+0  33084-3 0  9994",
        "tle_line2": "2 42767  97.4579  33.9012 0002722 276.9631  83.1294 15.19329699468238"
      },
      "geometry": {
        "type": "Point",
        "coordinates": [
          34.07600764466151,
          0.15511795753160995
        ]
      }
    },
    {
      "type": "Feature",
      "properties": {
        "norad_id": 42920,
        "name": "FORMOSAT-5",
        "group": "resource",
        "lat": 73.12090013161047,
        "lon": 22.346824197761357,
        "alt_km": 717.2985227163845,
        "timestamp": "2025-12-02T08:59:32.377123+00:00",
        "meta_object_name": "FORMOSAT-5",
        "meta_object_id": "2017-049A",
        "meta_epoch": "2025-12-02T03:40:55.762752",
        "meta_mean_motion": 14.50994576,
        "meta_eccentricity": 0.0010383,
        "meta_inclination": 98.2464,
        "meta_ra_of_asc_node": 50.682,
        "meta_arg_of_pericenter": 330.779,
        "meta_mean_anomaly": 29.2823,
        "meta_ephemeris_type": 0,
        "meta_classification_type": "U",
        "meta_norad_cat_id": 42920,
        "meta_element_set_no": 999,
        "meta_rev_at_epoch": 43810,
        "meta_bstar": 8.2601e-05,
        "meta_mean_motion_dot": 2.83e-06,
        "meta_mean_motion_ddot": 0,
        "tle_line1": "1 42920U 17049A   25336.15342318  .00000283  00000+0  82601-4 0  9997",
        "tle_line2": "2 42920  98.2464  50.6820 0010383 330.7790  29.2823 14.50994576438109"
      },
      "geometry": {
        "type": "Point",
        "coordinates": [
          22.346824197761357,
          73.12090013161047
        ]
      }
    },
    {
      "type": "Feature",
      "properties": {
        "norad_id": 42969,
        "name": "SENTINEL-5P",
        "group": "resource",
        "lat": -23.273112035275236,
        "lon": 91.24140451937348,
        "alt_km": 832.7188281736453,
        "timestamp": "2025-12-02T08:59:32.377133+00:00",
        "meta_object_name": "SENTINEL-5P",
        "meta_object_id": "2017-064A",
        "meta_epoch": "2025-12-02T02:57:42.890976",
        "meta_mean_motion": 14.19513019,
        "meta_eccentricity": 9.46e-05,
        "meta_inclination": 98.7768,
        "meta_ra_of_asc_node": 274.8025,
        "meta_arg_of_pericenter": 85.5044,
        "meta_mean_anomaly": 274.624,
        "meta_ephemeris_type": 0,
        "meta_classification_type": "U",
        "meta_norad_cat_id": 42969,
        "meta_element_set_no": 999,
        "meta_rev_at_epoch": 42160,
        "meta_bstar": 6.7214e-05,
        "meta_mean_motion_dot": 9.7e-07,
        "meta_mean_motion_ddot": 0,
        "tle_line1": "1 42969U 17064A   25336.12341309  .00000097  00000+0  67214-4 0  9999",
        "tle_line2": "2 42969  98.7768 274.8025 0000946  85.5044 274.6240 14.19513019421602"
      },
      "geometry": {
        "type": "Point",
        "coordinates": [
          91.24140451937348,
          -23.273112035275236
        ]
      }
    },
    {
      "type": "Feature",
      "properties": {
        "norad_id": 42987,
        "name": "SKYSAT-C11",
        "group": "resource",
        "lat": -62.70840858196507,
        "lon": -81.00185457257004,
        "alt_km": 433.7352541892751,
        "timestamp": "2025-12-02T08:59:32.377143+00:00",
        "meta_object_name": "SKYSAT-C11",
        "meta_object_id": "2017-068A",
        "meta_epoch": "2025-12-01T22:37:35.512032",
        "meta_mean_motion": 15.46762492,
        "meta_eccentricity": 9.21e-05,
        "meta_inclination": 97.4132,
        "meta_ra_of_asc_node": 113.1732,
        "meta_arg_of_pericenter": 119.4371,
        "meta_mean_anomaly": 240.6971,
        "meta_ephemeris_type": 0,
        "meta_classification_type": "U",
        "meta_norad_cat_id": 42987,
        "meta_element_set_no": 999,
        "meta_rev_at_epoch": 45264,
        "meta_bstar": 0.00048841,
        "meta_mean_motion_dot": 0.00024407,
        "meta_mean_motion_ddot": 0,
        "tle_line1": "1 42987U 17068A   25335.94277213  .00024407  00000+0  48841-3 0  9999",
        "tle_line2": "2 42987  97.4132 113.1732 0000921 119.4371 240.6971 15.46762492452640"
      },
      "geometry": {
        "type": "Point",
        "coordinates": [
          -81.00185457257004,
          -62.70840858196507
        ]
      }
    }
  ]
}